[{"OBJECT_NAME":"STARLINK-36143","OBJECT_ID":"2025-294AC","EPOCH":"2026-03-09T07:35:34.890720","MEAN_MOTION":15.27577073,"ECCENTRICITY":0.00015423,"INCLINATION":43.0039,"RA_OF_ASC_NODE":40.049,"ARG_OF_PERICENTER":252.6337,"MEAN_ANOMALY":107.4346,"EPHEMERIS_TYPE":0,"CLASSIFICATION_TYPE":"U","NORAD_CAT_ID":67056,"ELEMENT_SET_NO":999,"REV_AT_EPOCH":1474,"BSTAR":0.00065286204,"MEAN_MOTION_DOT":0.00017745,"MEAN_MOTION_DDOT":0},{"OBJECT_NAME":"ELECTRON KICK STAGE R\/B","OBJECT_ID":"2025-061J","EPOCH":"2026-03-09T21:50:35.145600","MEAN_MOTION":15.31602074,"ECCENTRICITY":0.00402669,"INCLINATION":97.5479,"RA_OF_ASC_NODE":52.3854,"ARG_OF_PERICENTER":150.2628,"MEAN_ANOMALY":210.0914,"EPHEMERIS_TYPE":0,"CLASSIFICATION_TYPE":"U","NORAD_CAT_ID":63359,"ELEMENT_SET_NO":999,"REV_AT_EPOCH":5306,"BSTAR":0.0006963674,"MEAN_MOTION_DOT":0.00021749,"MEAN_MOTION_DDOT":0}]
